{
  "links" : {
    "next" : "https://api.nasa.gov/neo/rest/v1/feed?start_date=2012-11-09&end_date=2012-11-09&detailed=true&api_key=t0TVs3DtDT2H8Oy2Zy8m2eVrNsAVKAexjcZXUckd",
    "prev" : "https://api.nasa.gov/neo/rest/v1/feed?start_date=2012-11-07&end_date=2012-11-07&detailed=true&api_key=t0TVs3DtDT2H8Oy2Zy8m2eVrNsAVKAexjcZXUckd",
    "self" : "https://api.nasa.gov/neo/rest/v1/feed?start_date=2012-11-08&end_date=2012-11-08&detailed=true&api_key=t0TVs3DtDT2H8Oy2Zy8m2eVrNsAVKAexjcZXUckd"
  },
  "element_count" : 10,
  "near_earth_objects" : {
    "2012-11-08" : [ {
      "links" : {
        "self" : "https://api.nasa.gov/neo/rest/v1/neo/3616690?api_key=t0TVs3DtDT2H8Oy2Zy8m2eVrNsAVKAexjcZXUckd"
      },
      "neo_reference_id" : "3616690",
      "name" : "(2012 VF6)",
      "nasa_jpl_url" : "http://ssd.jpl.nasa.gov/sbdb.cgi?sstr=3616690",
      "absolute_magnitude_h" : 21.3,
      "estimated_diameter" : {
        "kilometers" : {
          "estimated_diameter_min" : 0.1460679643,
          "estimated_diameter_max" : 0.3266178974
        },
        "meters" : {
          "estimated_diameter_min" : 146.0679642714,
          "estimated_diameter_max" : 326.6178974458
        },
        "miles" : {
          "estimated_diameter_min" : 0.090762397,
          "estimated_diameter_max" : 0.2029508896
        },
        "feet" : {
          "estimated_diameter_min" : 479.2256199,
          "estimated_diameter_max" : 1071.581062656
        }
      },
      "is_potentially_hazardous_asteroid" : false,
      "close_approach_data" : [ {
        "close_approach_date" : "2012-11-08",
        "epoch_date_close_approach" : 1352361600000,
        "relative_velocity" : {
          "kilometers_per_second" : "30.9947865245",
          "kilometers_per_hour" : "111581.2314880301",
          "miles_per_hour" : "69332.2379765485"
        },
        "miss_distance" : {
          "astronomical" : "0.420673047",
          "lunar" : "163.6418151855",
          "kilometers" : "62931792",
          "miles" : "39104004"
        },
        "orbiting_body" : "Earth"
      } ],
      "orbital_data" : {
        "orbit_id" : "8",
        "orbit_determination_date" : "2017-04-06 08:48:12",
        "orbit_uncertainty" : "7",
        "minimum_orbit_intersection" : ".381816",
        "jupiter_tisserand_invariant" : "2.196",
        "epoch_osculation" : "2458000.5",
        "eccentricity" : ".6111551011828642",
        "semi_major_axis" : "3.284546842544494",
        "inclination" : "60.90058886272616",
        "ascending_node_longitude" : "219.32371151811",
        "orbital_period" : "2174.260703836509",
        "perihelion_distance" : "1.277179284649357",
        "perihelion_argument" : "218.5047655054355",
        "aphelion_distance" : "5.291914400439631",
        "perihelion_time" : "2458459.123108377550",
        "mean_anomaly" : "284.0641571985413",
        "mean_motion" : ".1655735208591939",
        "equinox" : "J2000"
      }
    }, {
      "links" : {
        "self" : "https://api.nasa.gov/neo/rest/v1/neo/3092201?api_key=t0TVs3DtDT2H8Oy2Zy8m2eVrNsAVKAexjcZXUckd"
      },
      "neo_reference_id" : "3092201",
      "name" : "(1998 VE31)",
      "nasa_jpl_url" : "http://ssd.jpl.nasa.gov/sbdb.cgi?sstr=3092201",
      "absolute_magnitude_h" : 20.9,
      "estimated_diameter" : {
        "kilometers" : {
          "estimated_diameter_min" : 0.1756123185,
          "estimated_diameter_max" : 0.3926810818
        },
        "meters" : {
          "estimated_diameter_min" : 175.6123184804,
          "estimated_diameter_max" : 392.6810818086
        },
        "miles" : {
          "estimated_diameter_min" : 0.1091204019,
          "estimated_diameter_max" : 0.2440006365
        },
        "feet" : {
          "estimated_diameter_min" : 576.1559189633,
          "estimated_diameter_max" : 1288.3238004408
        }
      },
      "is_potentially_hazardous_asteroid" : false,
      "close_approach_data" : [ {
        "close_approach_date" : "2012-11-08",
        "epoch_date_close_approach" : 1352361600000,
        "relative_velocity" : {
          "kilometers_per_second" : "12.0927279282",
          "kilometers_per_hour" : "43533.8205415373",
          "miles_per_hour" : "27050.2231026013"
        },
        "miss_distance" : {
          "astronomical" : "0.1789080989",
          "lunar" : "69.5952453613",
          "kilometers" : "26764270",
          "miles" : "16630547"
        },
        "orbiting_body" : "Earth"
      } ],
      "orbital_data" : {
        "orbit_id" : "18",
        "orbit_determination_date" : "2017-04-06 09:17:39",
        "orbit_uncertainty" : "2",
        "minimum_orbit_intersection" : ".121594",
        "jupiter_tisserand_invariant" : "5.771",
        "epoch_osculation" : "2458000.5",
        "eccentricity" : ".1901821346491189",
        "semi_major_axis" : "1.050674094965843",
        "inclination" : "21.94571231563619",
        "ascending_node_longitude" : "57.31398775766456",
        "orbital_period" : "393.3693007190216",
        "perihelion_distance" : ".8508546527647077",
        "perihelion_argument" : "219.4972743708693",
        "aphelion_distance" : "1.250493537166978",
        "perihelion_time" : "2458085.713681737371",
        "mean_anomaly" : "282.0149478635454",
        "mean_motion" : ".9151705517994735",
        "equinox" : "J2000"
      }
    }, {
      "links" : {
        "self" : "https://api.nasa.gov/neo/rest/v1/neo/3303213?api_key=t0TVs3DtDT2H8Oy2Zy8m2eVrNsAVKAexjcZXUckd"
      },
      "neo_reference_id" : "3303213",
      "name" : "(2005 WD)",
      "nasa_jpl_url" : "http://ssd.jpl.nasa.gov/sbdb.cgi?sstr=3303213",
      "absolute_magnitude_h" : 21.9,
      "estimated_diameter" : {
        "kilometers" : {
          "estimated_diameter_min" : 0.1108038821,
          "estimated_diameter_max" : 0.2477650126
        },
        "meters" : {
          "estimated_diameter_min" : 110.8038821264,
          "estimated_diameter_max" : 247.7650126055
        },
        "miles" : {
          "estimated_diameter_min" : 0.068850319,
          "estimated_diameter_max" : 0.1539539936
        },
        "feet" : {
          "estimated_diameter_min" : 363.5298086356,
          "estimated_diameter_max" : 812.8773639568
        }
      },
      "is_potentially_hazardous_asteroid" : true,
      "close_approach_data" : [ {
        "close_approach_date" : "2012-11-08",
        "epoch_date_close_approach" : 1352361600000,
        "relative_velocity" : {
          "kilometers_per_second" : "16.8684862432",
          "kilometers_per_hour" : "60726.5504755798",
          "miles_per_hour" : "37733.1168774512"
        },
        "miss_distance" : {
          "astronomical" : "0.0362971878",
          "lunar" : "14.1196060181",
          "kilometers" : "5429982",
          "miles" : "3374034.25"
        },
        "orbiting_body" : "Earth"
      } ],
      "orbital_data" : {
        "orbit_id" : "16",
        "orbit_determination_date" : "2017-04-06 09:09:51",
        "orbit_uncertainty" : "0",
        "minimum_orbit_intersection" : ".0395118",
        "jupiter_tisserand_invariant" : "3.244",
        "epoch_osculation" : "2458000.5",
        "eccentricity" : ".5620319227130063",
        "semi_major_axis" : "2.306625431266921",
        "inclination" : "26.15274270567172",
        "ascending_node_longitude" : "227.7139163706233",
        "orbital_period" : "1279.569974845632",
        "perihelion_distance" : "1.010228305153256",
        "perihelion_argument" : "160.7867830689312",
        "aphelion_distance" : "3.603022557380586",
        "perihelion_time" : "2457502.627905953805",
        "mean_anomaly" : "140.0735851732164",
        "mean_motion" : ".2813445197035281",
        "equinox" : "J2000"
      }
    } ]
  }
}